{
  "type": "FeatureCollection",
  "features": [
    {
      "type": "Feature",
      "properties": {
        "norad_id": 66815,
        "name": "STARLINK-35985",
        "group": "last-30-days",
        "lat": -36.90388062660702,
        "lon": 136.7082715285499,
        "alt_km": 413.7397169665546,
        "timestamp": "2025-12-22T22:44:19.651298+00:00",
        "meta_object_name": "STARLINK-35985",
        "meta_object_id": "2025-278AA",
        "meta_epoch": "2025-12-22T14:00:01.999872",
        "meta_mean_motion": 15.53198307,
        "meta_eccentricity": 0.00014476,
        "meta_inclination": 42.9993,
        "meta_ra_of_asc_node": 192.5387,
        "meta_arg_of_pericenter": 260.6753,
        "meta_mean_anomaly": 160.2551,
        "meta_ephemeris_type": 0,
        "meta_classification_type": "U",
        "meta_norad_cat_id": 66815,
        "meta_element_set_no": 999,
        "meta_rev_at_epoch": 462,
        "meta_bstar": -0.030339438,
        "meta_mean_motion_dot": -0.01743341,
        "meta_mean_motion_ddot": 0,
        "tle_line1": "1 66815U 25278AA  25356.58335648 -.01743341  00000+0 -30339-1 0  9996",
        "tle_line2": "2 66815  42.9993 192.5387 0001447 260.6753 160.2551 15.53198307  4628"
      },
      "geometry": {
        "type": "Point",
        "coordinates": [
          136.7082715285499,
          -36.90388062660702
        ]
      }
    },
    {
      "type": "Feature",
      "properties": {
        "norad_id": 66816,
        "name": "STARLINK-36098",
        "group": "last-30-days",
        "lat": -39.652635331446994,
        "lon": 127.61636092633984,
        "alt_km": 413.7822663620591,
        "timestamp": "2025-12-22T22:44:19.651310+00:00",
        "meta_object_name": "STARLINK-36098",
        "meta_object_id": "2025-278AB",
        "meta_epoch": "2025-12-22T14:00:01.999872",
        "meta_mean_motion": 15.53197008,
        "meta_eccentricity": 0.00014789,
        "meta_inclination": 42.9992,
        "meta_ra_of_asc_node": 192.5585,
        "meta_arg_of_pericenter": 259.0135,
        "meta_mean_anomaly": 154.25,
        "meta_ephemeris_type": 0,
        "meta_classification_type": "U",
        "meta_norad_cat_id": 66816,
        "meta_element_set_no": 999,
        "meta_rev_at_epoch": 438,
        "meta_bstar": -0.03031313,
        "meta_mean_motion_dot": -0.01741936,
        "meta_mean_motion_ddot": 0,
        "tle_line1": "1 66816U 25278AB  25356.58335648 -.01741936  00000+0 -30313-1 0  9997",
        "tle_line2": "2 66816  42.9992 192.5585 0001478 259.0135 154.2500 15.53197008  4385"
      },
      "geometry": {
        "type": "Point",
        "coordinates": [
          127.61636092633984,
          -39.652635331446994
        ]
      }
    },
    {
      "type": "Feature",
      "properties": {
        "norad_id": 66817,
        "name": "STARLINK-35995",
        "group": "last-30-days",
        "lat": -38.366386890311304,
        "lon": 132.24885147193265,
        "alt_km": 413.8090640240889,
        "timestamp": "2025-12-22T22:44:19.651321+00:00",
        "meta_object_name": "STARLINK-35995",
        "meta_object_id": "2025-278AC",
        "meta_epoch": "2025-12-22T14:00:01.999872",
        "meta_mean_motion": 15.53201896,
        "meta_eccentricity": 0.0001484,
        "meta_inclination": 42.9992,
        "meta_ra_of_asc_node": 192.5487,
        "meta_arg_of_pericenter": 256.4803,
        "meta_mean_anomaly": 160.6146,
        "meta_ephemeris_type": 0,
        "meta_classification_type": "U",
        "meta_norad_cat_id": 66817,
        "meta_element_set_no": 999,
        "meta_rev_at_epoch": 454,
        "meta_bstar": -0.030476981,
        "meta_mean_motion_dot": -0.0175061,
        "meta_mean_motion_ddot": 0,
        "tle_line1": "1 66817U 25278AC  25356.58335648 -.01750610  00000+0 -30477-1 0  9998",
        "tle_line2": "2 66817  42.9992 192.5487 0001484 256.4803 160.6146 15.53201896  4543"
      },
      "geometry": {
        "type": "Point",
        "coordinates": [
          132.24885147193265,
          -38.366386890311304
        ]
      }
    },
    {
      "type": "Feature",
      "properties": {
        "norad_id": 66818,
        "name": "STARLINK-35994",
        "group": "last-30-days",
        "lat": -39.03294152226394,
        "lon": 129.95284080115485,
        "alt_km": 413.72839564802416,
        "timestamp": "2025-12-22T22:44:19.651333+00:00",
        "meta_object_name": "STARLINK-35994",
        "meta_object_id": "2025-278AD",
        "meta_epoch": "2025-12-22T14:00:01.999872",
        "meta_mean_motion": 15.53195242,
        "meta_eccentricity": 0.00015107,
        "meta_inclination": 42.9993,
        "meta_ra_of_asc_node": 192.5539,
        "meta_arg_of_pericenter": 260.9991,
        "meta_mean_anomaly": 154.1814,
        "meta_ephemeris_type": 0,
        "meta_classification_type": "U",
        "meta_norad_cat_id": 66818,
        "meta_element_set_no": 999,
        "meta_rev_at_epoch": 454,
        "meta_bstar": -0.030260354,
        "meta_mean_motion_dot": -0.01739147,
        "meta_mean_motion_ddot": 0,
        "tle_line1": "1 66818U 25278AD  25356.58335648 -.01739147  00000+0 -30260-1 0  9991",
        "tle_line2": "2 66818  42.9993 192.5539 0001510 260.9991 154.1814 15.53195242  4548"
      },
      "geometry": {
        "type": "Point",
        "coordinates": [
          129.95284080115485,
          -39.03294152226394
        ]
      }
    },
    {
      "type": "Feature",
      "properties": {
        "norad_id": 66819,
        "name": "STARLINK-35989",
        "group": "last-30-days",
        "lat": -37.65644024336108,
        "lon": 134.4996222943872,
        "alt_km": 413.68997821513585,
        "timestamp": "2025-12-22T22:44:19.651343+00:00",
        "meta_object_name": "STARLINK-35989",
        "meta_object_id": "2025-278AE",
        "meta_epoch": "2025-12-22T14:00:01.999872",
        "meta_mean_motion": 15.53201347,
        "meta_eccentricity": 0.00014936,
        "meta_inclination": 42.9992,
        "meta_ra_of_asc_node": 192.5436,
        "meta_arg_of_pericenter": 263.532,
        "meta_mean_anomaly": 155.4804,
        "meta_ephemeris_type": 0,
        "meta_classification_type": "U",
        "meta_norad_cat_id": 66819,
        "meta_element_set_no": 999,
        "meta_rev_at_epoch": 454,
        "meta_bstar": -0.030428619,
        "meta_mean_motion_dot": -0.01748108,
        "meta_mean_motion_ddot": 0,
        "tle_line1": "1 66819U 25278AE  25356.58335648 -.01748108  00000+0 -30429-1 0  9996",
        "tle_line2": "2 66819  42.9992 192.5436 0001493 263.5320 155.4804 15.53201347  4546"
      },
      "geometry": {
        "type": "Point",
        "coordinates": [
          134.4996222943872,
          -37.65644024336108
        ]
      }
    },
    {
      "type": "Feature",
      "properties": {
        "norad_id": 66820,
        "name": "KOMPSAT-7",
        "group": "last-30-days",
        "lat": 2.6290204361849963,
        "lon": -57.71786509797847,
        "alt_km": 572.8543408362848,
        "timestamp": "2025-12-22T22:44:19.651354+00:00",
        "meta_object_name": "KOMPSAT-7",
        "meta_object_id": "2025-279A",
        "meta_epoch": "2025-12-22T14:43:31.763712",
        "meta_mean_motion": 15.00656866,
        "meta_eccentricity": 0.00110996,
        "meta_inclination": 97.6452,
        "meta_ra_of_asc_node": 302.3072,
        "meta_arg_of_pericenter": 230.5774,
        "meta_mean_anomaly": 129.4468,
        "meta_ephemeris_type": 0,
        "meta_classification_type": "U",
        "meta_norad_cat_id": 66820,
        "meta_element_set_no": 999,
        "meta_rev_at_epoch": 313,
        "meta_bstar": 0.00023811996,
        "meta_mean_motion_dot": 2.956e-05,
        "meta_mean_motion_ddot": 0,
        "tle_line1": "1 66820U 25279A   25356.61356208  .00002956  00000+0  23812-3 0  9999",
        "tle_line2": "2 66820  97.6452 302.3072 0011099 230.5774 129.4468 15.00656866  3136"
      },
      "geometry": {
        "type": "Point",
        "coordinates": [
          -57.71786509797847,
          2.6290204361849963
        ]
      }
    },
    {
      "type": "Feature",
      "properties": {
        "norad_id": 66821,
        "name": "STARLINK-35966",
        "group": "last-30-days",
        "lat": 16.705821004034455,
        "lon": -15.818054112116952,
        "alt_km": 410.09156653507216,
        "timestamp": "2025-12-22T22:44:19.651364+00:00",
        "meta_object_name": "STARLINK-35966",
        "meta_object_id": "2025-280A",
        "meta_epoch": "2025-12-22T14:00:01.999872",
        "meta_mean_motion": 15.52488634,
        "meta_eccentricity": 0.00033743,
        "meta_inclination": 70.0002,
        "meta_ra_of_asc_node": 171.4545,
        "meta_arg_of_pericenter": 268.9709,
        "meta_mean_anomaly": 18.8311,
        "meta_ephemeris_type": 0,
        "meta_classification_type": "U",
        "meta_norad_cat_id": 66821,
        "meta_element_set_no": 999,
        "meta_rev_at_epoch": 447,
        "meta_bstar": 0.00058007749,
        "meta_mean_motion_dot": 0.00035641,
        "meta_mean_motion_ddot": 0,
        "tle_line1": "1 66821U 25280A   25356.58335648  .00035641  00000+0  58008-3 0  9995",
        "tle_line2": "2 66821  70.0002 171.4545 0003374 268.9709  18.8311 15.52488634  4472"
      },
      "geometry": {
        "type": "Point",
        "coordinates": [
          -15.818054112116952,
          16.705821004034455
        ]
      }
    }
  ]
}